CCSDS_OMM_VERS = 2.0
CREATION_DATE  = 
ORIGINATOR     = 

OBJECT_NAME    = STARLINK-35454
OBJECT_ID      = 2025-245C
CENTER_NAME    = EARTH
REF_FRAME      = TEME
TIME_SYSTEM    = UTC
MEAN_ELEMENT_THEORY = SGP/SGP4

EPOCH          = 2025-11-06T14:00:01.000224
MEAN_MOTION    = 15.91893018
ECCENTRICITY   = .0000579
INCLINATION    = 53.1535
RA_OF_ASC_NODE = 143.6990
ARG_OF_PERICENTER = 79.2479
MEAN_ANOMALY   = 39.6840

EPHEMERIS_TYPE = 0
CLASSIFICATION_TYPE = U
NORAD_CAT_ID   = 66236
ELEMENT_SET_NO = 999
REV_AT_EPOCH   = 229
BSTAR          = 0
MEAN_MOTION_DOT = -.3503E-4
MEAN_MOTION_DDOT = .11075E-4

CCSDS_OMM_VERS = 2.0
CREATION_DATE  = 
ORIGINATOR     = 

OBJECT_NAME    = STARLINK-35557
OBJECT_ID      = 2025-245D
CENTER_NAME    = EARTH
REF_FRAME      = TEME
TIME_SYSTEM    = UTC
MEAN_ELEMENT_THEORY = SGP/SGP4

EPOCH          = 2025-11-06T14:00:01.000224
MEAN_MOTION    = 15.91893018
ECCENTRICITY   = .0000579
INCLINATION    = 53.1535
RA_OF_ASC_NODE = 143.6990
ARG_OF_PERICENTER = 79.2479
MEAN_ANOMALY   = 39.6840

EPHEMERIS_TYPE = 0
CLASSIFICATION_TYPE = U
NORAD_CAT_ID   = 66237
ELEMENT_SET_NO = 999
REV_AT_EPOCH   = 229
BSTAR          = 0
MEAN_MOTION_DOT = -.3503E-4
MEAN_MOTION_DDOT = .11075E-4

CCSDS_OMM_VERS = 2.0
CREATION_DATE  = 
ORIGINATOR     = 

OBJECT_NAME    = STARLINK-35556
OBJECT_ID      = 2025-245E
CENTER_NAME    = EARTH
REF_FRAME      = TEME
TIME_SYSTEM    = UTC
MEAN_ELEMENT_THEORY = SGP/SGP4

EPOCH          = 2025-11-06T14:00:01.000224
MEAN_MOTION    = 15.91893018
ECCENTRICITY   = .0000579
INCLINATION    = 53.1535
RA_OF_ASC_NODE = 143.6990
ARG_OF_PERICENTER = 79.2479
MEAN_ANOMALY   = 39.6840

EPHEMERIS_TYPE = 0
CLASSIFICATION_TYPE = U
NORAD_CAT_ID   = 66238
ELEMENT_SET_NO = 999
REV_AT_EPOCH   = 229
BSTAR          = 0
MEAN_MOTION_DOT = -.3503E-4
MEAN_MOTION_DDOT = .11075E-4

CCSDS_OMM_VERS = 2.0
CREATION_DATE  = 
ORIGINATOR     = 

OBJECT_NAME    = STARLINK-35554
OBJECT_ID      = 2025-245F
CENTER_NAME    = EARTH
REF_FRAME      = TEME
TIME_SYSTEM    = UTC
MEAN_ELEMENT_THEORY = SGP/SGP4

EPOCH          = 2025-11-06T14:00:01.000224
MEAN_MOTION    = 15.91893018
ECCENTRICITY   = .0000579
INCLINATION    = 53.1535
RA_OF_ASC_NODE = 143.6990
ARG_OF_PERICENTER = 79.2479
MEAN_ANOMALY   = 39.6840

EPHEMERIS_TYPE = 0
CLASSIFICATION_TYPE = U
NORAD_CAT_ID   = 66239
ELEMENT_SET_NO = 999
REV_AT_EPOCH   = 229
BSTAR          = 0
MEAN_MOTION_DOT = -.3503E-4
MEAN_MOTION_DDOT = .11075E-4

CCSDS_OMM_VERS = 2.0
CREATION_DATE  = 
ORIGINATOR     = 

OBJECT_NAME    = STARLINK-35546
OBJECT_ID      = 2025-245G
CENTER_NAME    = EARTH
REF_FRAME      = TEME
TIME_SYSTEM    = UTC
MEAN_ELEMENT_THEORY = SGP/SGP4

EPOCH          = 2025-11-06T14:00:01.000224
MEAN_MOTION    = 15.91893018
ECCENTRICITY   = .0000579
INCLINATION    = 53.1535
RA_OF_ASC_NODE = 143.6990
ARG_OF_PERICENTER = 79.2479
MEAN_ANOMALY   = 39.6840

EPHEMERIS_TYPE = 0
CLASSIFICATION_TYPE = U
NORAD_CAT_ID   = 66240
ELEMENT_SET_NO = 999
REV_AT_EPOCH   = 229
BSTAR          = 0
MEAN_MOTION_DOT = -.3503E-4
MEAN_MOTION_DDOT = .11075E-4

CCSDS_OMM_VERS = 2.0
CREATION_DATE  = 
ORIGINATOR     = 

OBJECT_NAME    = STARLINK-35497
OBJECT_ID      = 2025-245H
CENTER_NAME    = EARTH
REF_FRAME      = TEME
TIME_SYSTEM    = UTC
MEAN_ELEMENT_THEORY = SGP/SGP4

EPOCH          = 2025-11-06T14:00:01.000224
MEAN_MOTION    = 15.91893018
ECCENTRICITY   = .0000579
INCLINATION    = 53.1535
RA_OF_ASC_NODE = 143.6990
ARG_OF_PERICENTER = 79.2479
MEAN_ANOMALY   = 39.6840

EPHEMERIS_TYPE = 0
CLASSIFICATION_TYPE = U
NORAD_CAT_ID   = 66241
ELEMENT_SET_NO = 999
REV_AT_EPOCH   = 229
BSTAR          = 0
MEAN_MOTION_DOT = -.3503E-4
MEAN_MOTION_DDOT = .11075E-4

CCSDS_OMM_VERS = 2.0
CREATION_DATE  = 
ORIGINATOR     = 

OBJECT_NAME    = STARLINK-35480
OBJECT_ID      = 2025-245J
CENTER_NAME    = EARTH
REF_FRAME      = TEME
TIME_SYSTEM    = UTC
MEAN_ELEMENT_THEORY = SGP/SGP4

EPOCH          = 2025-11-06T14:00:01.000224
MEAN_MOTION    = 15.91893018
ECCENTRICITY   = .0000579
INCLINATION    = 53.1535
RA_OF_ASC_NODE = 143.6990
ARG_OF_PERICENTER = 79.2479
MEAN_ANOMALY   = 39.6840

EPHEMERIS_TYPE = 0
CLASSIFICATION_TYPE = U
NORAD_CAT_ID   = 66242
ELEMENT_SET_NO = 999
REV_AT_EPOCH   = 229
BSTAR          = 0
MEAN_MOTION_DOT = -.3503E-4
MEAN_MOTION_DDOT = .11075E-4

CCSDS_OMM_VERS = 2.0
CREATION_DATE  = 
ORIGINATOR     = 

OBJECT_NAME    = STARLINK-35495
OBJECT_ID      = 2025-245K
CENTER_NAME    = EARTH
REF_FRAME      = TEME
TIME_SYSTEM    = UTC
MEAN_ELEMENT_THEORY = SGP/SGP4

EPOCH          = 2025-11-06T14:00:01.000224
MEAN_MOTION    = 15.91893018
ECCENTRICITY   = .0000579
INCLINATION    = 53.1535
RA_OF_ASC_NODE = 143.6990
ARG_OF_PERICENTER = 79.2479
MEAN_ANOMALY   = 39.6840

EPHEMERIS_TYPE = 0
CLASSIFICATION_TYPE = U
NORAD_CAT_ID   = 66243
ELEMENT_SET_NO = 999
REV_AT_EPOCH   = 229
BSTAR          = 0
MEAN_MOTION_DOT = -.3503E-4
MEAN_MOTION_DDOT = .11075E-4

CCSDS_OMM_VERS = 2.0
CREATION_DATE  = 
ORIGINATOR     = 

OBJECT_NAME    = STARLINK-35517
OBJECT_ID      = 2025-245L
CENTER_NAME    = EARTH
REF_FRAME      = TEME
TIME_SYSTEM    = UTC
MEAN_ELEMENT_THEORY = SGP/SGP4

EPOCH          = 2025-11-06T14:00:01.000224
MEAN_MOTION    = 15.91893018
ECCENTRICITY   = .0000579
INCLINATION    = 53.1535
RA_OF_ASC_NODE = 143.6990
ARG_OF_PERICENTER = 79.2479
MEAN_ANOMALY   = 39.6840

EPHEMERIS_TYPE = 0
CLASSIFICATION_TYPE = U
NORAD_CAT_ID   = 66244
ELEMENT_SET_NO = 999
REV_AT_EPOCH   = 229
BSTAR          = 0
MEAN_MOTION_DOT = -.3503E-4
MEAN_MOTION_DDOT = .11075E-4

CCSDS_OMM_VERS = 2.0
CREATION_DATE  = 
ORIGINATOR     = 

OBJECT_NAME    = STARLINK-35503
OBJECT_ID      = 2025-245M
CENTER_NAME    = EARTH
REF_FRAME      = TEME
TIME_SYSTEM    = UTC
MEAN_ELEMENT_THEORY = SGP/SGP4

EPOCH          = 2025-11-06T14:00:01.000224
MEAN_MOTION    = 15.91893018
ECCENTRICITY   = .0000579
INCLINATION    = 53.1535
RA_OF_ASC_NODE = 143.6990
ARG_OF_PERICENTER = 79.2479
MEAN_ANOMALY   = 39.6840

EPHEMERIS_TYPE = 0
CLASSIFICATION_TYPE = U
NORAD_CAT_ID   = 66245
ELEMENT_SET_NO = 999
REV_AT_EPOCH   = 229
BSTAR          = 0
MEAN_MOTION_DOT = -.3503E-4
MEAN_MOTION_DDOT = .11075E-4

CCSDS_OMM_VERS = 2.0
CREATION_DATE  = 
ORIGINATOR     = 

OBJECT_NAME    = STARLINK-35434
OBJECT_ID      = 2025-245N
CENTER_NAME    = EARTH
REF_FRAME      = TEME
TIME_SYSTEM    = UTC
MEAN_ELEMENT_THEORY = SGP/SGP4

EPOCH          = 2025-11-06T14:00:01.000224
MEAN_MOTION    = 15.91893018
ECCENTRICITY   = .0000579
INCLINATION    = 53.1535
RA_OF_ASC_NODE = 143.6990
ARG_OF_PERICENTER = 79.2479
MEAN_ANOMALY   = 39.6840

EPHEMERIS_TYPE = 0
CLASSIFICATION_TYPE = U
NORAD_CAT_ID   = 66246
ELEMENT_SET_NO = 999
REV_AT_EPOCH   = 229
BSTAR          = 0
MEAN_MOTION_DOT = -.3503E-4
MEAN_MOTION_DDOT = .11075E-4

CCSDS_OMM_VERS = 2.0
CREATION_DATE  = 
ORIGINATOR     = 

OBJECT_NAME    = STARLINK-35481
OBJECT_ID      = 2025-245P
CENTER_NAME    = EARTH
REF_FRAME      = TEME
TIME_SYSTEM    = UTC
MEAN_ELEMENT_THEORY = SGP/SGP4

EPOCH          = 2025-11-06T14:00:01.000224
MEAN_MOTION    = 15.91893018
ECCENTRICITY   = .0000579
INCLINATION    = 53.1535
RA_OF_ASC_NODE = 143.6990
ARG_OF_PERICENTER = 79.2479
MEAN_ANOMALY   = 39.6840

EPHEMERIS_TYPE = 0
CLASSIFICATION_TYPE = U
NORAD_CAT_ID   = 66247
ELEMENT_SET_NO = 999
REV_AT_EPOCH   = 229
BSTAR          = 0
MEAN_MOTION_DOT = -.3503E-4
MEAN_MOTION_DDOT = .11075E-4

